HELIOS 1B               
1 25977U 99064A   20115.83214623  .00000019  00000-0  94842-5 0  9998
2 25977  98.2737 268.8675 0002214 124.2543 235.8879 14.82472797367177
TERRA                   
1 25994U 99068A   20115.81430051  .00000031  00000-0  16843-4 0  9992
2 25994  98.2147 190.8382 0001043  95.4025 264.7270 14.57125848 82504
SL-16 R/B               
1 26070U 00006B   20115.81162590 -.00000136  00000-0 -45028-4 0  9997
2 26070  70.9998 285.9738 0017817 212.1001 147.9038 14.15460397 45047
TITAN 4B R/B            
1 26474U 00047B   20115.76307946  .00000085  00000-0  18372-4 0  9993
2 26474  67.9942 223.4767 0060834 257.6138 101.8191 14.95940663 71215
ENVISAT                 
1 27386U 02009A   20115.84367262  .00000008  00000-0  16061-4 0  9990
2 27386  98.1382 125.7080 0001390  88.3503 324.5905 14.37978362950914
IDEFIX & ARIANE 42P R/B 
1 27422U 02021B   20115.83163791 -.00000004  00000-0  14620-4 0  9991
2 27422  98.3463  79.1345 0012988  34.2401 325.9617 14.29286203935617
AQUA                    
1 27424U 02022A   20115.84801521  .00000088  00000-0  29534-4 0  9996
2 27424  98.2058  57.2606 0002294 117.5798 316.7299 14.57117194956113
CZ-4B R/B               
1 27432U 02024C   20115.84751160 -.00000036  00000-0  52746-5 0  9996
2 27432  99.0884 117.1306 0049911 328.5997  96.0557 14.14091785926070
MIDORI II (ADEOS-II)    
1 27597U 02056A   20115.84400463  .00000032  00000-0  30288-4 0  9991
2 27597  98.5155  64.7911 0001845 112.4969 247.6407 14.27442554904161
H-2A R/B                
1 27601U 02056E   20115.88349979  .00000030  00000-0  25294-4 0  9994
2 27601  98.2321 154.3945 0073377  77.5481  94.3469 14.31946197907021
CZ-4B R/B               
1 28059U 03049C   20115.80147021  .00000018  00000-0  16142-4 0  9999
2 28059  98.4874  31.7235 0049100 303.5266  56.1244 14.52596330875040
CZ-2C R/B               
1 28222U 04012C   20115.84716119  .00000492  00000-0  33423-4 0  9993
2 28222  97.6722  78.2642 0046251 211.9592 176.9138 15.10355567877945
SL-16 R/B               
1 28353U 04021B   20115.80521092 -.00000098  00000-0 -26220-4 0  9999
2 28353  71.0014  51.8404 0003358  37.5506 322.5850 14.14225724819558
CZ-4B R/B               
1 28415U 04035C   20115.84679363  .00000160  00000-0  14731-4 0  9994
2 28415  97.6200 157.9947 0051846 173.4167 186.7753 15.06840303855567
CZ-2C R/B               
1 28480U 04046B   20115.88977422 -.00000038  00000-0  61982-6 0  9996
2 28480  98.0846 154.9693 0142397  24.2072 147.6829 14.25720114802788
ARIANE 5 R/B            
1 28499U 04049H   20115.84542111  .00000044  00000-0  12580-4 0  9992
2 28499  98.0504 217.4620 0093551  86.6699  63.9573 14.80021924828168
CZ-2D R/B               
1 28738U 05024B   20115.84260793  .00000230  00000-0  17016-4 0  9991
2 28738  97.3874 140.1812 0012318  17.1500 343.0144 15.12007302813309
SUZAKU (ASTRO-EII)      
1 28773U 05025A   20115.87572746  .00000984  00000-0  43595-4 0  9995
2 28773  31.3833   5.0351 0004325  25.8369 334.2494 15.17503550815792
ALOS (DAICHI)           
1 28931U 06002A   20115.78432927  .00000096  00000-0  27497-4 0  9990
2 28931  97.8425 104.1542 0000610  57.8307 302.2955 14.62700968759857
H-2A R/B                
1 28932U 06002B   20115.86803080  .00000305  00000-0  34138-4 0  9995
2 28932  98.3198 102.8903 0089653 136.2062 263.7598 14.92193010773151
AKARI (ASTRO-F)         
1 28939U 06005A   20115.89996802  .00001824  00000-0  50862-4 0  9992
2 28939  98.2284  83.8781 0094771 150.7217 209.9382 15.34018281772688
RESURS-DK 1             
1 29228U 06021A   20115.82375349  .00000044  00000-0  10640-4 0  9995
2 29228  69.9356 324.5270 0005814 215.6040 144.4734 15.02530948764698
GENESIS 1               
1 29252U 06029A   20115.72222667  .00000146  00000-0  17183-4 0  9995
2 29252  64.5198 117.3189 0017827 179.2921 180.8231 15.18088762759944
CZ-4B R/B               
1 29507U 06046C   20115.81361508  .00000896  00000-0  74334-4 0  9998
2 29507  97.7546 137.8039 0047784 345.5611  14.4244 15.00583903737324
CZ-2C R/B               
1 31114U 07010B   20115.86872198  .00000004  00000-0  20100-4 0  9997
2 31114  98.2684 332.3258 0060851  63.8792 296.8629 14.19317679675402
COSMO-SKYMED 1          
1 31598U 07023A   20115.80701082  .00000141  00000-0  24300-4 0  9992
2 31598  97.8891 299.7560 0001507  92.5264 267.6134 14.82152469696887
GENESIS 2               
1 31789U 07028A   20115.84331677  .00000212  00000-0  20850-4 0  9997
2 31789  64.5016 158.4001 0049345 250.5857 108.9929 15.17224839707035
COSMOS 2428             
1 31792U 07029A   20115.80998529 -.00000255  00000-0 -11221-3 0  9993
2 31792  70.9213  25.6155 0006420 152.9358 207.2098 14.12360900661204
SL-16 R/B               
1 31793U 07029B   20115.81133227 -.00000003  00000-0  23589-4 0  9992
2 31793  70.9769 359.0448 0002140 276.5281 150.4024 14.14423563662108
KORONAS-FOTON           
1 33504U 09003A   20115.82618471  .00000065  00000-0  16692-5 0  9993
2 33504  82.4397 276.1746 0020668 103.8962 256.4572 15.15615231619269
H-2A R/B                
1 38341U 12025E   20115.50869910  .00000116  00000-0  21103-4 0  9995
2 38341  98.4925 267.0555 0056400  46.2952 314.2912 14.84015821429361
CUSAT 2 & FALCON 9 R/B  
1 39271U 13055G   20115.83545270  .00002658  00000-0  64058-4 0  9997
2 39271  80.9651 324.6655 0590156 331.5146  25.4916 14.47566248342972
SL-4 R/B                
1 39679U 14021B   20115.77658881  .00000362  00000-0  35791-4 0  9991
2 39679  51.6169 356.5124 0172550 119.7035 242.1234 15.06366038330930
ALOS-2                  
1 39766U 14029A   20115.87828482 -.00000504  00000-0 -60686-4 0  9994
2 39766  97.9194 213.2430 0001584  86.6361 273.5022 14.79467829319770
SL-27 R/B               
1 40354U 14084B   20115.80585314  .00000792  00000-0  20599-4 0  9993
2 40354  74.7362 139.0799 0037946 352.8597   7.2069 15.40147455299878
YAOGAN 29               
1 41038U 15069A   20115.90890073 -.00000007  00000-0  60194-5 0  9995
2 41038  98.0079 103.9785 0002258  73.8251 286.3212 14.80443961238352
ASTRO-H (HITOMI)        
1 41337U 16012A   20115.11657177  .00000293  00000-0  16832-4 0  9990
2 41337  31.0070 354.2772 0012550 254.3126 105.6124 14.98673873229342
SHENZHOU-11 MODULE      
1 41868U 16061G   20115.90570285  .00038171  88532-5  10784-3 0  9990
2 41868  42.7872 114.6738 0011040 125.7641 311.6619 15.93643474197517
HXMT (HUIYAN)           
1 42758U 17034A   20115.84313029  .00000209  00000-0  26776-4 0  9993
2 42758  43.0196 330.0917 0010136  44.3285  68.0032 15.08806056157776
CZ-2C R/B               
1 43521U 18054D   20115.56089271  .00000410  00000-0  24532-4 0  9995
2 43521  35.1527 152.0822 0082870   1.8388 358.2618 15.10971082100999
AEOLUS                  
1 43600U 18066A   20115.75500953  .00025293  00000-0  10065-3 0  9993
2 43600  96.7211 122.9552 0006887  99.3309 260.8743 15.86607394 96856
SAOCOM 1A               
1 43641U 18076A   20115.88272477  .00000014  00000-0  83263-5 0  9996
2 43641  97.8889 302.7633 0001453  85.1481 274.9903 14.82152723 83665
CREW DRAGON DEMO-1 DEB  
1 44064U 19011B   20115.61724595  .00016482  00000-0  17766-3 0  9999
2 44064  51.6377 225.0075 0003499 212.5435 147.5197 15.63825610 64480
